STARLINK-2377_new
1 17797C 21018L   21326.19652392  .00005186  00000-0  34738-3 0  3269
2 17797  53.0545  97.8444 0001394  80.4287 328.2248 15.06399152    11
STARLINK-2377_old
1 27797C 21018L   21325.14914316  .00003193  00000-0  21398-3 0  3253
2 27797  53.0540 102.5460 0001440  80.7885  44.7500 15.06389999    16
